OBJECT_NAME,OBJECT_ID,EPOCH,MEAN_MOTION,ECCENTRICITY,INCLINATION,RA_OF_ASC_NODE,ARG_OF_PERICENTER,MEAN_ANOMALY,EPHEMERIS_TYPE,CLASSIFICATION_TYPE,NORAD_CAT_ID,ELEMENT_SET_NO,REV_AT_EPOCH,BSTAR,MEAN_MOTION_DOT,MEAN_MOTION_DDOT
LEMUR-1,2014-033AL,2026-06-16T16:30:09.483264,14.85245484,.0049698,97.7878,317.5034,80.2491,280.4332,0,U,40044,999,64539,.22133E-3,.1886E-4,0
LEMUR-2-GREENBERG,2017-042N,2026-06-16T18:14:49.418880,15.31316124,.0008577,97.3814,348.3864,15.5813,344.5691,0,U,42837,999,48832,.43707E-3,.13165E-3,0
LEMUR-2-ANDIS,2017-042P,2026-06-16T11:08:59.988480,15.34819017,.00082333,97.3671,348.2738,15.0070,345.1416,0,U,42838,999,48834,.51974477E-3,.17504E-3,0
LEMUR-2-MONSON,2017-042Q,2026-06-16T18:26:07.099008,15.28000285,.0006247,97.4074,348.3672,7.6887,352.4447,0,U,42839,999,48810,.42373E-3,.11512E-3,0
LEMUR-2-FURIAUS,2017-042R,2026-06-16T18:05:27.252960,15.30239155,.0008202,97.3765,346.3362,70.5443,289.6683,0,U,42840,999,48814,.48002E-3,.13991E-3,0
LEMUR-2-PETERG,2017-042S,2026-06-16T18:35:13.490016,15.33869152,.0003273,97.3984,352.8035,358.7679,1.3555,0,U,42841,999,48837,.49958E-3,.16305E-3,0
LEMUR-2-DEMBITZ,2017-042T,2026-06-16T18:34:06.053088,15.30281657,.000679,97.3820,349.3796,30.1866,329.9765,0,U,42842,999,48828,.45794E-3,.13356E-3,0
LEMUR-2-ZACHARY,2017-042W,2026-06-16T19:15:56.050848,15.50232069,.0002924,97.3589,359.4309,34.4782,325.6659,0,U,42845,999,48914,.66161E-3,.37414E-3,0
LEMUR-2-AMANDA-SVANTE,2021-034B,2026-06-16T16:55:37.486272,15.34272625,.0002263,97.5763,245.9779,209.4497,150.6618,0,U,48269,999,28098,.79919E-3,.26498E-3,0
LEMUR-2-SPECIAL-K,2021-034F,2026-06-16T16:50:20.745600,15.64338135,.0004202,97.5653,254.5237,229.5026,130.5867,0,U,48273,999,28161,.13126E-2,.12703E-2,0
LEMUR-2-EMBRIONOVIS,2023-084AQ,2026-06-16T16:20:45.134880,15.37536982,.000777,97.6293,311.8603,322.1739,37.8958,0,U,56970,999,16760,.29997E-3,.10973E-3,0
LEMUR-2-DEVERILL-M-T,2023-100F,2026-06-16T20:16:39.969120,15.39740022,.0006325,99.4462,206.5039,51.3156,308.8648,0,U,57391,999,16119,.59826E-3,.23614E-3,0
LEMUR-2-BASS,2023-174D,2026-06-16T18:09:06.892128,15.43082726,.0007699,97.3849,252.4621,163.5670,196.5829,0,U,58259,999,14529,.32448E-3,.14275E-3,0
LEMUR-2-JK0903EM1407,2023-174CJ,2026-06-16T18:09:49.055328,15.51662320,.0005786,97.3927,258.2139,121.1436,239.0384,0,U,58336,999,14566,.37361E-3,.22153E-3,0
LEMUR-2-MJR092620,2023-174CN,2026-06-16T16:55:42.633120,15.44860170,.0007098,97.3982,257.7253,119.1076,241.0884,0,U,58340,999,14557,.33187E-3,.15506E-3,0
LEMUR-2-NIMBUS2000,2024-022A,2026-06-16T21:12:46.387008,15.39987680,.0010334,97.4103,17.8814,116.7900,243.4405,0,U,58899,999,13222,.34964E-3,.13893E-3,0
LEMUR-2-VALHALLA,2024-022B,2026-06-16T13:19:17.775840,15.39656475,.0010844,97.4101,17.5394,113.9825,246.2557,0,U,58900,999,13217,.3142E-3,.1234E-3,0
LEMUR-2-CAEL,2024-022E,2026-06-16T13:34:12.847872,15.40957067,.0009267,97.4083,18.4847,99.3313,260.8982,0,U,58903,999,13224,.32446E-3,.133E-3,0
LEMUR-2-JOHNNYTRUONG,2024-043BA,2026-06-16T09:07:57.163008,15.60412144,.00047797,97.5377,319.0331,178.7042,181.4227,0,U,59146,999,12791,.40940149E-3,.33577E-3,0
LEMUR-2-TOMATOKECHUP,2024-149D,2026-06-16T04:41:13.746336,15.36017182,.00013254,97.3806,249.2392,177.5329,182.5921,0,U,60471,999,10201,.26406406E-3,.9181E-4,0
LEMUR-2-STELLA,2024-149BT,2026-06-16T18:01:12.047232,15.11804625,.0001732,97.6742,250.2036,96.0993,264.0434,0,U,60533,999,10043,.54568E-3,.9258E-4,0
LEMUR-2-MARHISYAM,2024-149BW,2026-06-16T20:43:18.966144,15.11255844,.0003286,97.6881,250.7652,118.9205,241.2354,0,U,60536,999,10043,.53922E-3,.9009E-4,0
LEMUR-2-AHMED-ASRAR,2024-149DN,2026-06-16T16:47:10.109184,15.12706166,.0001901,97.7012,252.6915,45.0764,315.0621,0,U,60576,999,10049,.55962E-3,.9738E-4,0
LEMUR-2-LLOYD,2024-149DP,2026-06-16T17:03:31.392000,15.09231845,.0004787,97.6749,248.8391,142.2162,217.9403,0,U,60577,999,10032,.58668E-3,.9277E-4,0
LEMUR-2-SQUIRRELCOMM,2024-149DQ,2026-06-16T15:47:22.606656,15.07144784,.0006378,97.6708,248.5706,62.9978,297.1900,0,U,60578,999,10032,.31309E-3,.4645E-4,0
LEMUR-2-SIERRINI,2024-149DR,2026-06-16T18:06:22.302720,15.10941023,.000585,97.6847,250.3445,164.9516,195.1888,0,U,60579,999,10039,.53554E-3,.8871E-4,0
LEMUR-2-WILSON,2025-009CP,2026-06-16T18:14:57.258816,14.95163613,.000426,97.7025,246.2323,59.6213,300.5428,0,U,62694,999,7729,.21298E-3,.2282E-4,0
LEMUR-2-STAR-FOX,2025-009CR,2026-06-16T18:14:06.279360,15.02500338,.0003815,97.6957,249.3712,112.6404,247.5225,0,U,62696,999,7749,.49218E-3,.6478E-4,0
LEMUR-2-ARIANNA,2025-009CU,2026-06-16T18:11:42.336096,15.02481709,.0004191,97.6897,249.1449,118.2983,241.8665,0,U,62699,999,7749,.49118E-3,.6462E-4,0
LEMUR-2-ALISIA,2025-009DB,2026-06-16T17:40:00.482016,15.02764457,.0001968,97.6956,249.9090,191.4316,168.6864,0,U,62706,999,10009,.44306E-3,.5865E-4,0
