LEMUR-1                 
1 40044U 14033AL  26167.68760976  .00001886  00000+0  22133-3 0  9990
2 40044  97.7878 317.5034 0049698  80.2491 280.4332 14.85245484645397
LEMUR-2-GREENBERG       
1 42837U 17042N   26167.76029420  .00013165  00000+0  43707-3 0  9999
2 42837  97.3814 348.3864 0008577  15.5813 344.5691 15.31316124488328
LEMUR-2-ANDIS           
1 42838U 17042P   26167.46458320  .00017504  00000+0  51974-3 0  9998
2 42838  97.3671 348.2738 0008233  15.0070 345.1416 15.34819017488344
LEMUR-2-MONSON          
1 42839U 17042Q   26167.76813772  .00011512  00000+0  42373-3 0  9994
2 42839  97.4074 348.3672 0006247   7.6887 352.4447 15.28000285488108
LEMUR-2-FURIAUS         
1 42840U 17042R   26167.75378765  .00013991  00000+0  48002-3 0  9991
2 42840  97.3765 346.3362 0008202  70.5443 289.6683 15.30239155488140
LEMUR-2-PETERG          
1 42841U 17042S   26167.77446169  .00016305  00000+0  49958-3 0  9991
2 42841  97.3984 352.8035 0003273 358.7679   1.3555 15.33869152488379
LEMUR-2-DEMBITZ         
1 42842U 17042T   26167.77368117  .00013356  00000+0  45794-3 0  9995
2 42842  97.3820 349.3796 0006790  30.1866 329.9765 15.30281657488287
LEMUR-2-ZACHARY         
1 42845U 17042W   26167.80273207  .00037414  00000+0  66161-3 0  9999
2 42845  97.3589 359.4309 0002924  34.4782 325.6659 15.50232069489149
LEMUR-2-AMANDA-SVANTE   
1 48269U 21034B   26167.70529498  .00026498  00000+0  79919-3 0  9991
2 48269  97.5763 245.9779 0002263 209.4497 150.6618 15.34272625280980
LEMUR-2-SPECIAL-K       
1 48273U 21034F   26167.70162900  .00127030  00000+0  13126-2 0  9998
2 48273  97.5653 254.5237 0004202 229.5026 130.5867 15.64338135281610
LEMUR-2-EMBRIONOVIS     
1 56970U 23084AQ  26167.68107795  .00010973  00000+0  29997-3 0  9997
2 56970  97.6293 311.8603 0007770 322.1739  37.8958 15.37536982167604
LEMUR-2-DEVERILL-M-T    
1 57391U 23100F   26167.84490705  .00023614  00000+0  59826-3 0  9998
2 57391  99.4462 206.5039 0006325  51.3156 308.8648 15.39740022161191
LEMUR-2-BASS            
1 58259U 23174D   26167.75632977  .00014275  00000+0  32448-3 0  9996
2 58259  97.3849 252.4621 0007699 163.5670 196.5829 15.43082726145291
LEMUR-2-JK0903EM1407    
1 58336U 23174CJ  26167.75681777  .00022153  00000+0  37361-3 0  9997
2 58336  97.3927 258.2139 0005786 121.1436 239.0384 15.51662320145660
LEMUR-2-MJR092620       
1 58340U 23174CN  26167.70535455  .00015506  00000+0  33187-3 0  9994
2 58340  97.3982 257.7253 0007098 119.1076 241.0884 15.44860170145575
LEMUR-2-NIMBUS2000      
1 58899U 24022A   26167.88387022  .00013893  00000+0  34964-3 0  9991
2 58899  97.4103  17.8814 0010334 116.7900 243.4405 15.39987680132227
LEMUR-2-VALHALLA        
1 58900U 24022B   26167.55506685  .00012340  00000+0  31420-3 0  9996
2 58900  97.4101  17.5394 0010844 113.9825 246.2557 15.39656475132177
LEMUR-2-CAEL            
1 58903U 24022E   26167.56542648  .00013300  00000+0  32446-3 0  9995
2 58903  97.4083  18.4847 0009267  99.3313 260.8982 15.40957067132243
LEMUR-2-JOHNNYTRUONG    
1 59146U 24043BA  26167.38052272  .00033577  00000+0  40940-3 0  9993
2 59146  97.5377 319.0331 0004779 178.7042 181.4227 15.60412144127914
LEMUR-2-TOMATOKECHUP    
1 60471U 24149D   26167.19529799  .00009181  00000+0  26406-3 0  9990
2 60471  97.3806 249.2392 0001325 177.5329 182.5921 15.36017182102015
LEMUR-2-STELLA          
1 60533U 24149BT  26167.75083388  .00009258  00000+0  54568-3 0  9995
2 60533  97.6742 250.2036 0001732  96.0993 264.0434 15.11804625100435
LEMUR-2-MARHISYAM       
1 60536U 24149BW  26167.86341396  .00009009  00000+0  53922-3 0  9993
2 60536  97.6881 250.7652 0003286 118.9205 241.2354 15.11255844100438
LEMUR-2-AHMED-ASRAR     
1 60576U 24149DN  26167.69942256  .00009738  00000+0  55962-3 0  9995
2 60576  97.7012 252.6915 0001901  45.0764 315.0621 15.12706166100496
LEMUR-2-LLOYD           
1 60577U 24149DP  26167.71078000  .00009277  00000+0  58668-3 0  9990
2 60577  97.6749 248.8391 0004787 142.2162 217.9403 15.09231845100328
LEMUR-2-SQUIRRELCOMM    
1 60578U 24149DQ  26167.65790054  .00004645  00000+0  31309-3 0  9991
2 60578  97.6708 248.5706 0006378  62.9978 297.1900 15.07144784100327
LEMUR-2-SIERRINI        
1 60579U 24149DR  26167.75442480  .00008871  00000+0  53554-3 0  9991
2 60579  97.6847 250.3445 0005850 164.9516 195.1888 15.10941023100392
LEMUR-2-WILSON          
1 62694U 25009CP  26167.76038494  .00002282  00000+0  21298-3 0  9994
2 62694  97.7025 246.2323 0004260  59.6213 300.5428 14.95163613 77295
LEMUR-2-STAR-FOX        
1 62696U 25009CR  26167.75979490  .00006478  00000+0  49218-3 0  9998
2 62696  97.6957 249.3712 0003815 112.6404 247.5225 15.02500338 77498
LEMUR-2-ARIANNA         
1 62699U 25009CU  26167.75812889  .00006462  00000+0  49118-3 0  9991
2 62699  97.6897 249.1449 0004191 118.2983 241.8665 15.02481709 77496
LEMUR-2-ALISIA          
1 62706U 25009DB  26167.73611669  .00005865  00000+0  44306-3 0  9991
2 62706  97.6956 249.9090 0001968 191.4316 168.6864 15.02764457100097
